GLOBALSTAR M001 [-]     
1 25162U 98008A   23277.44237458 -.00000128  00000+0 -24287-3 0  9997
2 25162  52.0057 342.7937 0001618  38.0591 335.2912 12.38167830166696
GLOBALSTAR M004 [-]     
1 25163U 98008B   23277.41287527 -.00000078  00000+0  14249-3 0  9997
2 25163  51.9979 150.9558 0003254   4.9151 165.7404 12.63338868183092
GLOBALSTAR M002 [-]     
1 25164U 98008C   23277.48324662 -.00000081  00000+0 -92657-4 0  9992
2 25164  52.0047 359.0035 0001783  92.6966 267.4058 11.61495283111825
GLOBALSTAR M003 [-]     
1 25165U 98008D   23277.63912637  .00000019  00000+0  11543-2 0  9997
2 25165  51.9736  90.0855 0008620 120.3995 317.8760 12.11941604157851
GLOBALSTAR M014 [-]     
1 25306U 98023A   23277.31853581 -.00000055  00000+0  42999-3 0  9999
2 25306  51.9834 295.7141 0000702 309.3172  64.3035 11.65460422118665
GLOBALSTAR M006 [-]     
1 25307U 98023B   23277.45538218 -.00000059  00000+0  34227-3 0  9991
2 25307  51.9956 324.6049 0003748  74.0822 299.4784 11.58154163144790
GLOBALSTAR M015 [-]     
1 25308U 98023C   23277.64262788 -.00000001  00000+0  16554-2 0  9998
2 25308  51.9851  34.1274 0012914  54.1714 319.1024 11.48851278122649
GLOBALSTAR M008 [-]     
1 25309U 98023D   23277.32361799 -.00000037  00000+0  46502-3 0  9992
2 25309  51.9960 200.9292 0002358 319.1794 191.7407 12.36029070160946
